KUIPER-00095            
1 65134U 25171C   26032.91668981 -.00107861  00000+0 -13370-1 0  9995
2 65134  51.8987 303.6144 0002215   9.4412  19.4261 14.82869106  4473
KUIPER-00096            
1 65135U 25171D   26032.95410371  .00004936  00000+0  67578-3 0  9996
2 65135  51.9006 316.1074 0001999  94.2826 265.8365 14.79945025 27600
KUIPER-00097            
1 65136U 25171E   26032.94994022  .00005124  00000+0  69604-3 0  9998
2 65136  51.9029 318.7328 0003229  69.0050 291.1258 14.80218107 27556
KUIPER-00098            
1 65137U 25171F   26032.94691914  .00004743  00000+0  64636-3 0  9999
2 65137  51.9010 321.1239 0007325  28.1382 331.9975 14.80219131 26872
KUIPER-00099            
1 65138U 25171G   26032.92569120  .00001563  00000+0  23420-3 0  9994
2 65138  51.9044 311.2132 0001122 108.8899 251.2185 14.79893035 27664
KUIPER-00100            
1 65139U 25171H   26032.96212843 -.00002616  00000+0 -31452-3 0  9992
2 65139  51.9042 308.5368 0000628  81.8604 278.2430 14.79900663 27700
KUIPER-00102            
1 65140U 25171J   26032.95944957 -.00002274  00000+0 -26958-3 0  9996
2 65140  51.8992 311.0834 0000618  69.1501 290.9527 14.79905676 27668
KUIPER-00103            
1 65141U 25171K   26032.97503558  .00004813  00000+0  66048-3 0  9990
2 65141  51.8999 328.5110 0002767  41.5717 318.5455 14.79896201 27420
KUIPER-00104            
1 65142U 25171L   26032.91668981 -.00029814  00000+0 -38985-2 0  9995
2 65142  51.9030 316.2152 0000971 155.9818 184.9999 14.79939773  5320
KUIPER-00105            
1 65143U 25171M   26032.20254329  .00005592  00000+0  75901-3 0  9990
2 65143  51.9020 326.9923 0002613  51.6456 308.4741 14.80096145 27386
KUIPER-00106            
1 65144U 25171N   26032.79646338 -.00004460  00000+0 -35939-3 0  9992
2 65144  51.8942 318.0468 0007664 345.5752  14.4998 14.97178471 27569
KUIPER-00107            
1 65145U 25171P   26032.96483120  .00003309  00000+0  46269-3 0  9997
2 65145  51.9015 306.0672 0000823  85.2462 274.8595 14.79945437 27741
KUIPER-00108            
1 65146U 25171Q   26032.78248994 -.00004421  00000+0 -55155-3 0  9998
2 65146  51.9074 319.3865 0002525  60.1686 299.9527 14.79901343 27548
KUIPER-00109            
1 65147U 25171R   26031.20095086  .00002282  00000+0  32813-3 0  9994
2 65147  51.9075 321.3203 0002924  74.6000 285.5285 14.79957074 27377
KUIPER-00110            
1 65148U 25171S   26032.97701730 -.00000286  00000+0 -83763-5 0  9996
2 65148  51.9019 326.0588 0002955  86.6678 273.4623 14.79923965 27455
KUIPER-00111            
1 65149U 25171T   26032.80270047 -.00013918  00000+0 -18000-2 0  9996
2 65149  51.8960 331.7437 0002440  59.8933 300.2271 14.79937636 27369
