[{"OBJECT_NAME":"KUIPER-00095","OBJECT_ID":"2025-171C","EPOCH":"2026-02-01T22:00:01.999584","MEAN_MOTION":14.82869106,"ECCENTRICITY":0.00022159,"INCLINATION":51.8987,"RA_OF_ASC_NODE":303.6144,"ARG_OF_PERICENTER":9.4412,"MEAN_ANOMALY":19.4261,"EPHEMERIS_TYPE":0,"CLASSIFICATION_TYPE":"U","NORAD_CAT_ID":65134,"ELEMENT_SET_NO":999,"REV_AT_EPOCH":447,"BSTAR":-0.013370155,"MEAN_MOTION_DOT":-0.00107861,"MEAN_MOTION_DDOT":0},{"OBJECT_NAME":"KUIPER-00096","OBJECT_ID":"2025-171D","EPOCH":"2026-02-01T22:53:54.560544","MEAN_MOTION":14.79945025,"ECCENTRICITY":0.00019993,"INCLINATION":51.9006,"RA_OF_ASC_NODE":316.1074,"ARG_OF_PERICENTER":94.2826,"MEAN_ANOMALY":265.8365,"EPHEMERIS_TYPE":0,"CLASSIFICATION_TYPE":"U","NORAD_CAT_ID":65135,"ELEMENT_SET_NO":999,"REV_AT_EPOCH":2760,"BSTAR":0.00067578392,"MEAN_MOTION_DOT":4.936e-5,"MEAN_MOTION_DDOT":0},{"OBJECT_NAME":"KUIPER-00097","OBJECT_ID":"2025-171E","EPOCH":"2026-02-01T22:47:54.835008","MEAN_MOTION":14.80218107,"ECCENTRICITY":0.00032291,"INCLINATION":51.9029,"RA_OF_ASC_NODE":318.7328,"ARG_OF_PERICENTER":69.005,"MEAN_ANOMALY":291.1258,"EPHEMERIS_TYPE":0,"CLASSIFICATION_TYPE":"U","NORAD_CAT_ID":65136,"ELEMENT_SET_NO":999,"REV_AT_EPOCH":2755,"BSTAR":0.00069604083,"MEAN_MOTION_DOT":5.124e-5,"MEAN_MOTION_DDOT":0},{"OBJECT_NAME":"KUIPER-00098","OBJECT_ID":"2025-171F","EPOCH":"2026-02-01T22:43:33.813696","MEAN_MOTION":14.80219131,"ECCENTRICITY":0.00073253,"INCLINATION":51.901,"RA_OF_ASC_NODE":321.1239,"ARG_OF_PERICENTER":28.1382,"MEAN_ANOMALY":331.9975,"EPHEMERIS_TYPE":0,"CLASSIFICATION_TYPE":"U","NORAD_CAT_ID":65137,"ELEMENT_SET_NO":999,"REV_AT_EPOCH":2687,"BSTAR":0.00064636484,"MEAN_MOTION_DOT":4.743e-5,"MEAN_MOTION_DDOT":0},{"OBJECT_NAME":"KUIPER-00099","OBJECT_ID":"2025-171G","EPOCH":"2026-02-01T22:12:59.719680","MEAN_MOTION":14.79893035,"ECCENTRICITY":0.00011226,"INCLINATION":51.9044,"RA_OF_ASC_NODE":311.2132,"ARG_OF_PERICENTER":108.8899,"MEAN_ANOMALY":251.2185,"EPHEMERIS_TYPE":0,"CLASSIFICATION_TYPE":"U","NORAD_CAT_ID":65138,"ELEMENT_SET_NO":999,"REV_AT_EPOCH":2766,"BSTAR":0.00023420027,"MEAN_MOTION_DOT":1.563e-5,"MEAN_MOTION_DDOT":0},{"OBJECT_NAME":"KUIPER-00100","OBJECT_ID":"2025-171H","EPOCH":"2026-02-01T23:05:27.896352","MEAN_MOTION":14.79900663,"ECCENTRICITY":6.28e-5,"INCLINATION":51.9042,"RA_OF_ASC_NODE":308.5368,"ARG_OF_PERICENTER":81.8604,"MEAN_ANOMALY":278.243,"EPHEMERIS_TYPE":0,"CLASSIFICATION_TYPE":"U","NORAD_CAT_ID":65139,"ELEMENT_SET_NO":999,"REV_AT_EPOCH":2770,"BSTAR":-0.00031451515,"MEAN_MOTION_DOT":-2.616e-5,"MEAN_MOTION_DDOT":0},{"OBJECT_NAME":"KUIPER-00102","OBJECT_ID":"2025-171J","EPOCH":"2026-02-01T23:01:36.442848","MEAN_MOTION":14.79905676,"ECCENTRICITY":6.18e-5,"INCLINATION":51.8992,"RA_OF_ASC_NODE":311.0834,"ARG_OF_PERICENTER":69.1501,"MEAN_ANOMALY":290.9527,"EPHEMERIS_TYPE":0,"CLASSIFICATION_TYPE":"U","NORAD_CAT_ID":65140,"ELEMENT_SET_NO":999,"REV_AT_EPOCH":2766,"BSTAR":-0.00026957984,"MEAN_MOTION_DOT":-2.274e-5,"MEAN_MOTION_DDOT":0},{"OBJECT_NAME":"KUIPER-00103","OBJECT_ID":"2025-171K","EPOCH":"2026-02-01T23:24:03.074112","MEAN_MOTION":14.79896201,"ECCENTRICITY":0.00027679,"INCLINATION":51.8999,"RA_OF_ASC_NODE":328.511,"ARG_OF_PERICENTER":41.5717,"MEAN_ANOMALY":318.5455,"EPHEMERIS_TYPE":0,"CLASSIFICATION_TYPE":"U","NORAD_CAT_ID":65141,"ELEMENT_SET_NO":999,"REV_AT_EPOCH":2742,"BSTAR":0.00066047871,"MEAN_MOTION_DOT":4.813e-5,"MEAN_MOTION_DDOT":0},{"OBJECT_NAME":"KUIPER-00104","OBJECT_ID":"2025-171L","EPOCH":"2026-02-01T22:00:01.999584","MEAN_MOTION":14.79939773,"ECCENTRICITY":9.715e-5,"INCLINATION":51.903,"RA_OF_ASC_NODE":316.2152,"ARG_OF_PERICENTER":155.9818,"MEAN_ANOMALY":184.9999,"EPHEMERIS_TYPE":0,"CLASSIFICATION_TYPE":"U","NORAD_CAT_ID":65142,"ELEMENT_SET_NO":999,"REV_AT_EPOCH":532,"BSTAR":-0.0038985466,"MEAN_MOTION_DOT":-0.00029814,"MEAN_MOTION_DDOT":0},{"OBJECT_NAME":"KUIPER-00105","OBJECT_ID":"2025-171M","EPOCH":"2026-02-01T04:51:39.740256","MEAN_MOTION":14.80096145,"ECCENTRICITY":0.00026136,"INCLINATION":51.902,"RA_OF_ASC_NODE":326.9923,"ARG_OF_PERICENTER":51.6456,"MEAN_ANOMALY":308.4741,"EPHEMERIS_TYPE":0,"CLASSIFICATION_TYPE":"U","NORAD_CAT_ID":65143,"ELEMENT_SET_NO":999,"REV_AT_EPOCH":2738,"BSTAR":0.00075901483,"MEAN_MOTION_DOT":5.592e-5,"MEAN_MOTION_DDOT":0},{"OBJECT_NAME":"KUIPER-00106","OBJECT_ID":"2025-171N","EPOCH":"2026-02-01T19:06:54.436032","MEAN_MOTION":14.97178471,"ECCENTRICITY":0.00076646,"INCLINATION":51.8942,"RA_OF_ASC_NODE":318.0468,"ARG_OF_PERICENTER":345.5752,"MEAN_ANOMALY":14.4998,"EPHEMERIS_TYPE":0,"CLASSIFICATION_TYPE":"U","NORAD_CAT_ID":65144,"ELEMENT_SET_NO":999,"REV_AT_EPOCH":2756,"BSTAR":-0.00035939419,"MEAN_MOTION_DOT":-4.46e-5,"MEAN_MOTION_DDOT":0},{"OBJECT_NAME":"KUIPER-00107","OBJECT_ID":"2025-171P","EPOCH":"2026-02-01T23:09:21.415680","MEAN_MOTION":14.79945437,"ECCENTRICITY":8.235e-5,"INCLINATION":51.9015,"RA_OF_ASC_NODE":306.0672,"ARG_OF_PERICENTER":85.2462,"MEAN_ANOMALY":274.8595,"EPHEMERIS_TYPE":0,"CLASSIFICATION_TYPE":"U","NORAD_CAT_ID":65145,"ELEMENT_SET_NO":999,"REV_AT_EPOCH":2774,"BSTAR":0.00046269038,"MEAN_MOTION_DOT":3.309e-5,"MEAN_MOTION_DDOT":0},{"OBJECT_NAME":"KUIPER-00108","OBJECT_ID":"2025-171Q","EPOCH":"2026-02-01T18:46:47.130816","MEAN_MOTION":14.79901343,"ECCENTRICITY":0.00025259,"INCLINATION":51.9074,"RA_OF_ASC_NODE":319.3865,"ARG_OF_PERICENTER":60.1686,"MEAN_ANOMALY":299.9527,"EPHEMERIS_TYPE":0,"CLASSIFICATION_TYPE":"U","NORAD_CAT_ID":65146,"ELEMENT_SET_NO":999,"REV_AT_EPOCH":2754,"BSTAR":-0.00055155107,"MEAN_MOTION_DOT":-4.421e-5,"MEAN_MOTION_DDOT":0},{"OBJECT_NAME":"KUIPER-00109","OBJECT_ID":"2025-171R","EPOCH":"2026-01-31T04:49:22.154304","MEAN_MOTION":14.79957074,"ECCENTRICITY":0.0002924,"INCLINATION":51.9075,"RA_OF_ASC_NODE":321.3203,"ARG_OF_PERICENTER":74.6,"MEAN_ANOMALY":285.5285,"EPHEMERIS_TYPE":0,"CLASSIFICATION_TYPE":"U","NORAD_CAT_ID":65147,"ELEMENT_SET_NO":999,"REV_AT_EPOCH":2737,"BSTAR":0.00032813,"MEAN_MOTION_DOT":2.282e-5,"MEAN_MOTION_DDOT":0},{"OBJECT_NAME":"KUIPER-00110","OBJECT_ID":"2025-171S","EPOCH":"2026-02-01T23:26:54.294720","MEAN_MOTION":14.79923965,"ECCENTRICITY":0.00029554,"INCLINATION":51.9019,"RA_OF_ASC_NODE":326.0588,"ARG_OF_PERICENTER":86.6678,"MEAN_ANOMALY":273.4623,"EPHEMERIS_TYPE":0,"CLASSIFICATION_TYPE":"U","NORAD_CAT_ID":65148,"ELEMENT_SET_NO":999,"REV_AT_EPOCH":2745,"BSTAR":-8.376337e-6,"MEAN_MOTION_DOT":-2.86e-6,"MEAN_MOTION_DDOT":0},{"OBJECT_NAME":"KUIPER-00111","OBJECT_ID":"2025-171T","EPOCH":"2026-02-01T19:15:53.320608","MEAN_MOTION":14.79937636,"ECCENTRICITY":0.00024405,"INCLINATION":51.896,"RA_OF_ASC_NODE":331.7437,"ARG_OF_PERICENTER":59.8933,"MEAN_ANOMALY":300.2271,"EPHEMERIS_TYPE":0,"CLASSIFICATION_TYPE":"U","NORAD_CAT_ID":65149,"ELEMENT_SET_NO":999,"REV_AT_EPOCH":2736,"BSTAR":-0.0018000495,"MEAN_MOTION_DOT":-0.00013918,"MEAN_MOTION_DDOT":0}]
